norad_id,name,regime,epoch,line1,line2,inclination,eccentricity,mean_motion,raan,arg_pericenter,mean_anomaly
26566,COSMOS 2374 (GLONASS),NSO,18051.71536994,1 26566U 00063C   18051.71536994 +.00000011 +00000-0 +00000-0 0 0001\,2 26566 065.3014 056.2706 0066160 218.6811 319.4360 02.1309976713501,65.3014,0.006616,2.13099767,56.2706,218.6811,319.436
26566,COSMOS 2374 (GLONASS),NSO,18052.19224976,1 26566U 00063C   18052.19224976 +.00000012 +00000-0 +00000-0 0 0001\,2 26566 065.3016 056.2544 0066158 218.6835 325.2742 02.1309975813502,65.3016,0.0066158,2.13099758,56.2544,218.6835,325.2742
26566,COSMOS 2374 (GLONASS),NSO,18053.61155566,1 26566U 00063C   18053.61155566 +.00000017 +00000-0 +00000-0 0 0001\,2 26566 065.3024 056.2060 0066154 218.6918 334.0931 02.1309973113505,65.3024,0.0066154,2.13099731,56.206,218.6918,334.0931
26566,COSMOS 2374 (GLONASS),NSO,18054.31803716,1 26566U 00063C   18054.31803716  .00000019  00000-0  00000+0 0  7437\,2 26566  65.3028  56.1820 0066148 218.7026 156.0633  2.13099739135123,65.3028,0.0066148,2.13099739,56.182,218.7026,156.0633
26566,COSMOS 2374 (GLONASS),NSO,18054.61402738,1 26566U 00063C   18054.61402738 +.00000019 +00000-0 +00000-0 0 0001\,2 26566 065.3030 056.1719 0066148 218.7036 023.1326 02.1309973713507,65.303,0.0066148,2.13099737,56.1719,218.7036,23.1326
26566,COSMOS 2374 (GLONASS),NSO,18056.44521242,1 26566U 00063C   18056.44521242  .00000019  00000-0  00000+0 0  7445\,2 26566  65.3040  56.1095 0066145 218.7118 347.9261  2.13099709135169,65.304,0.0066145,2.13099709,56.1095,218.7118,347.9261
26566,COSMOS 2374 (GLONASS),NSO,18056.86585434,1 26566U 00063C   18056.86585434 +.00000017 +00000-0 +00000-0 0 0001\,2 26566 065.3042 056.0952 0066144 218.7115 310.6237 02.1309970513512,65.3042,0.0066144,2.13099705,56.0952,218.7115,310.6237
26566,COSMOS 2374 (GLONASS),NSO,18057.86002698,1 26566U 00063C   18057.86002698 +.00000011 +00000-0 +00000-0 0 0001\,2 26566 065.3047 056.0614 0066143 218.7131 353.3063 02.1309970513514,65.3047,0.0066143,2.13099705,56.0614,218.7131,353.3063
26566,COSMOS 2374 (GLONASS),NSO,18058.80693836,1 26566U 00063C   18058.80693836  .00000003  00000-0  00000+0 0  7450\,2 26566  65.3052  56.0291 0066143 218.7114 359.7356  2.13099718135215,65.3052,0.0066143,2.13099718,56.0291,218.7114,359.7356
26566,COSMOS 2374 (GLONASS),NSO,18059.69294913,1 26566U 00063C   18059.69294913 -.00000005 +00000-0 +00000-0 0 0001\,2 26566 065.3057 055.9990 0066141 218.7103 319.4440 02.1309972713518,65.3057,0.0066141,2.13099727,55.999,218.7103,319.444
26566,COSMOS 2374 (GLONASS),NSO,18060.39848941,1 26566U 00063C   18060.39848941 -.00000012 +00000-0 +00000-0 0 0001\,2 26566 065.3061 055.9749 0066143 218.7121 140.7010 02.1309974913519,65.3061,0.0066143,2.13099749,55.9749,218.7121,140.701
26566,COSMOS 2374 (GLONASS),NSO,18061.52617962,1 26566U 00063C   18061.52617962 -.00000021  00000-0  00000+0 0  7461\,2 26566  65.3067  55.9365 0066147 218.7110 285.8148  2.13099767135279,65.3067,0.0066147,2.13099767,55.9365,218.711,285.8148
26566,COSMOS 2374 (GLONASS),NSO,18062.51368605,1 26566U 00063C   18062.51368605 -.00000027 +00000-0 +00000-0 0 0001\,2 26566 065.3072 055.9029 0066149 218.7133 323.3827 02.1309978813524,65.3072,0.0066149,2.13099788,55.9029,218.7133,323.3827
26566,COSMOS 2374 (GLONASS),NSO,18063.05636517,1 26566U 00063C   18063.05636517 -.00000029 +00000-0 +00000-0 0 0001\,2 26566 065.3075 055.8845 0066152 218.7132 019.7017 02.1309980513525,65.3075,0.0066152,2.13099805,55.8845,218.7132,19.7017
26566,COSMOS 2374 (GLONASS),NSO,18064.37496882,1 26566U 00063C   18064.37496882 -.00000028  00000-0  00000+0 0  7471\,2 26566  65.3082  55.8396 0066155 218.7155 311.2725  2.13099838135338,65.3082,0.0066155,2.13099838,55.8396,218.7155,311.2725
26566,COSMOS 2374 (GLONASS),NSO,18064.94734906,1 26566U 00063C   18064.94734906 -.00000026 +00000-0 +00000-0 0 0001\,2 26566 065.3086 055.8201 0066152 218.7165 030.3758 02.1309985413529,65.3086,0.0066152,2.13099854,55.8201,218.7165,30.3758
26566,COSMOS 2374 (GLONASS),NSO,18065.89437196,1 26566U 00063C   18065.89437196 -.00000021 +00000-0 +00000-0 0 0001\,2 26566 065.3091 055.7879 0066148 218.7167 036.8887 02.1309987613531,65.3091,0.0066148,2.13099876,55.7879,218.7167,36.8887
26566,COSMOS 2374 (GLONASS),NSO,18066.83578822,1 26566U 00063C   18066.83578822 -.00000015  00000-0  00000+0 0  7486\,2 26566  65.3096  55.7559 0066144 218.7160  39.1014  2.13099896135383,65.3096,0.0066144,2.13099896,55.7559,218.716,39.1014
26566,COSMOS 2374 (GLONASS),NSO,18067.67004384,1 26566U 00063C   18067.67004384 -.00000009 +00000-0 +00000-0 0 0001\,2 26566 065.3100 055.7275 0066139 218.7153 319.1053 02.1309990913535,65.31,0.0066139,2.13099909,55.7275,218.7153,319.1053
26566,COSMOS 2374 (GLONASS),NSO,18068.61481369,1 26566U 00063C   18068.61481369 -.00000004 +00000-0 +00000-0 0 0001\,2 26566 065.3105 055.6954 0066135 218.7117 323.8935 02.1309991413537,65.3105,0.0066135,2.13099914,55.6954,218.7117,323.8935
26566,COSMOS 2374 (GLONASS),NSO,18069.55204350,1 26566U 00063C   18069.55204350  .00000000  00000-0  00000+0 0  7494\,2 26566  65.3110  55.6635 0066130 218.7085 322.8970  2.13099914135446,65.311,0.006613,2.13099914,55.6635,218.7085,322.897
26566,COSMOS 2374 (GLONASS),NSO,18070.49312951,1 26566U 00063C   18070.49312951 +.00000003 +00000-0 +00000-0 0 0001\,2 26566 065.3114 055.6316 0066129 218.7070 324.8572 02.1309991613541,65.3114,0.0066129,2.13099916,55.6316,218.707,324.8572
26566,COSMOS 2374 (GLONASS),NSO,18071.97312722,1 26566U 00063C   18071.97312722  .00000004  00000-0  00000+0 0  7502\,2 26566  65.3122  55.5813 0066124 218.7071  20.2447  2.13099909135491,65.3122,0.0066124,2.13099909,55.5813,218.7071,20.2447
26566,COSMOS 2374 (GLONASS),NSO,18073.74565934,1 26566U 00063C   18073.74565934 +.00000002 +00000-0 +00000-0 0 0001\,2 26566 065.3132 055.5210 0066110 218.7115 300.0470 02.1309988113548,65.3132,0.006611,2.13099881,55.521,218.7115,300.047
26566,COSMOS 2374 (GLONASS),NSO,18074.27471763,1 26566U 00063C   18074.27471763  .00000002  00000-0  00000+0 0  7518\,2 26566  65.3134  55.5031 0066106 218.7104 345.9175  2.13099869135549,65.3134,0.0066106,2.13099869,55.5031,218.7104,345.9175
26566,COSMOS 2374 (GLONASS),NSO,18074.93729868,1 26566U 00063C   18074.93729868 +.00000001 +00000-0 +00000-0 0 0001\,2 26566 065.3138 055.4806 0066105 218.7119 134.2184 02.1309985613550,65.3138,0.0066105,2.13099856,55.4806,218.7119,134.2184
26566,COSMOS 2374 (GLONASS),NSO,18075.69268848,1 26566U 00063C   18075.69268848 +.00000001 +00000-0 +00000-0 0 0001\,2 26566 065.3142 055.4549 0066088 218.7096 353.7213 02.1309982913552,65.3142,0.0066088,2.13099829,55.4549,218.7096,353.7213
26566,COSMOS 2374 (GLONASS),NSO,18076.22691500,1 26566U 00063C   18076.22691500 +.00000000 +00000-0 +00000-0 0 0001\,2 26566 065.3144 055.4368 0066090 218.7099 043.5555 02.1309981913553,65.3144,0.006609,2.13099819,55.4368,218.7099,43.5555
26566,COSMOS 2374 (GLONASS),NSO,18076.63744892,1 26566U 00063C   18076.63744892  .00000000  00000-0  00000+0 0  7525\,2 26566  65.3146  55.4228 0066086 218.7085 358.4999  2.13099810135598,65.3146,0.0066086,2.1309981,55.4228,218.7085,358.4999
26566,COSMOS 2374 (GLONASS),NSO,18077.46836012,1 26566U 00063C   18077.46836012 +.00000001 +00000-0 +00000-0 0 0001\,2 26566 065.3150 055.3946 0066077 218.7073 275.9386 02.1309979513556,65.315,0.0066077,2.13099795,55.3946,218.7073,275.9386
26566,COSMOS 2374 (GLONASS),NSO,18078.46573896,1 26566U 00063C   18078.46573896 +.00000003 +00000-0 +00000-0 0 0001\,2 26566 065.3155 055.3607 0066069 218.7079 321.0819 02.1309977313558,65.3155,0.0066069,2.13099773,55.3607,218.7079,321.0819
26566,COSMOS 2374 (GLONASS),NSO,18079.94666212,1 26566U 00063C   18079.94666212 +.00000006 +00000-0 +00000-0 0 0001\,2 26566 065.3163 055.3103 0066066 218.7079 017.1788 02.1309974013561,65.3163,0.0066066,2.1309974,55.3103,218.7079,17.1788
26566,COSMOS 2374 (GLONASS),NSO,18080.00416745,1 26566U 00063C   18080.00416745  .00000006  00000-0  00000+0 0  7531\,2 26566  65.3162  55.3084 0066079 218.7144  61.2880  2.13099743135664,65.3162,0.0066079,2.13099743,55.3084,218.7144,61.288
26566,COSMOS 2374 (GLONASS),NSO,18080.82170508,1 26566U 00063C   18080.82170508 +.00000008 +00000-0 +00000-0 0 0001\,2 26566 065.3166 055.2806 0066083 218.7194 328.4605 02.1309972013563,65.3166,0.0066083,2.1309972,55.2806,218.7194,328.4605
26566,COSMOS 2374 (GLONASS),NSO,18082.24284895,1 26566U 00063C   18082.24284895  .00000010  00000-0  00000+0 0  7544\,2 26566  65.3173  55.2323 0066080 218.7340 338.6831  2.13099702135719,65.3173,0.006608,2.13099702,55.2323,218.734,338.6831
26566,COSMOS 2374 (GLONASS),NSO,18082.77401484,1 26566U 00063C   18082.77401484 +.00000010 +00000-0 +00000-0 0 0001\,2 26566 065.3176 055.2142 0066079 218.7353 026.1683 02.1309970313567,65.3176,0.0066079,2.13099703,55.2142,218.7353,26.1683
26566,COSMOS 2374 (GLONASS),NSO,18083.25427181,1 26566U 00063C   18083.25427181 +.00000009 +00000-0 +00000-0 0 0001\,2 26566 065.3178 055.1979 0066075 218.7331 034.6017 02.1309969613568,65.3178,0.0066075,2.13099696,55.1979,218.7331,34.6017
26566,COSMOS 2374 (GLONASS),NSO,18084.51593678,1 26566U 00063C   18084.51593678 +.00000004 +00000-0 +00000-0 0 0755\,2 26566 065.3184 055.1550 0066071 218.7272 282.4997 02.1309969413576,65.3184,0.0066071,2.13099694,55.155,218.7272,282.4997
26566,COSMOS 2374 (GLONASS),NSO,18084.66383094,1 26566U 00063C   18084.66383094 +.00000003 +00000-0 +00000-0 0 0001\,2 26566 065.3185 055.1500 0066067 218.7275 035.9569 02.1309968713571,65.3185,0.0066067,2.13099687,55.15,218.7275,35.9569
26566,COSMOS 2374 (GLONASS),NSO,18085.13855861,1 26566U 00063C   18085.13855861 -.00000001 +00000-0 +00000-0 0 0001\,2 26566 065.3187 055.1338 0066064 218.7248 040.1490 02.1309968613572,65.3187,0.0066064,2.13099686,55.1338,218.7248,40.149
26566,COSMOS 2374 (GLONASS),NSO,18086.44559845,1 26566U 00063C   18086.44559845 -.00000013 +00000-0 +00000-0 0 0001\,2 26566 065.3193 055.0894 0066063 218.7157 322.8594 02.1309968713575,65.3193,0.0066063,2.13099687,55.0894,218.7157,322.8594
